lon,lat,name,operator,capacity,fee,city,street,housenumber
14.551084,53.4425056,,,,false,,,
21.0309054,52.2391223,RWE Polska - Warszawa. Wybrzeże Kościuszkowskie,RWE Polska,2,,Warszawa,Wybrzeże Kościuszkowskie,41
21.0307263,52.2392403,RWE Polska - Warszawa. Wybrzeże Kościuszkowskie,RWE Polska,2,,Warszawa,Wybrzeże Kościuszkowskie,41
21.044686,52.1904084,RWE - Warszawa. Pory,RWE,2,false,Warszawa,Pory,80
21.0828076,52.2659969,RWE Polska S.A. - Warszawa. Nieświeska,RWE Polska S.A.,2,false,Warszawa,Nieświeska,52
18.6259248,54.3733992,Energa,Energa,,,,,
19.4447756,51.7797512,e+,e+,,,,,
19.2770178,51.8116303,ABB - Aleksandrów Łódzki. Placydowska,ABB,1,false,Aleksandrów Łódzki,Placydowska,27
20.9840264,52.2577191,,,,false,,,
20.9878209,52.1854091,Schneider Electric Polska Sp. z o.o.,Schneider Electric Polska Sp. z o.o.,1,false,,,
16.584214,51.0373594,Tesla. Inc.,Tesla. Inc.,4,true,,,
17.0279459,51.1012171,,,,,,,
20.9822404,52.1909131,,,2,,,,
21.019281,52.1071248,,,1,,,,
22.5763545,51.2496351,,,,false,,,
16.9875663,52.3820693,,,2,false,,,
21.0056834,52.1794898,,,3,true,,,
21.0388792,52.1427093,RWE,RWE,2,false,,,
17.0905,51.1428922,Galactico,Galactico,2,,,,
20.4648671,52.1121291,,,1,false,,,
19.0465949,50.2545681,Tesla. Inc.,Tesla. Inc.,4,true,,Murckowska,22
15.6078374,52.0323998,,,,,,,
21.0167574,52.1513408,DBT,DBT,2,false,,,
18.5708143,54.4023253,Energa - Gdańsk. Aleja Grunwaldzka,Energa,2,false,Gdańsk,Aleja Grunwaldzka,472
18.539707,54.4967958,Energa,Energa,1,false,,,
18.6273699,54.3712208,Energa - Gdańsk. Aleja Zwycięstwa,Energa,2,false,Gdańsk,Aleja Zwycięstwa,13
19.8904467,50.0991166,Nissan - Kraków. Jasnogórska,Nissan,1,false,Kraków,Jasnogórska,60
19.1167961,50.2959386,DBT - Sosnowiec. Stawowa,DBT,1,false,Sosnowiec,Stawowa,2
16.8930081,52.4002585,Tesla. Inc.,Tesla. Inc.,6,true,,,
14.674465,53.3831243,Polmotor - Szczecin. Andrzeja Struga,Polmotor,1,,Szczecin,Andrzeja Struga,71
18.5476908,50.0971727,GO+EAuto,GO+EAuto,2,false,,,
18.6466607,49.9592195,LLOYD BAZA,LLOYD BAZA,,,,,
16.8901334,52.4162029,LIDL,LIDL,2,false,,,
16.8491702,52.3587755,Volkswagen,Volkswagen,2,,,,
18.1207475,53.131656,IKEA,IKEA,2,false,,,
17.1284442,51.1501922,PHOENIX CONTACT - Wrocław. Bierutowska,PHOENIX CONTACT,2,,Wrocław,Bierutowska,57
17.1279144,51.1548878,GreenWay - Wrocław. Wilanowska,GreenWay,1,true,Wrocław,Wilanowska,2
17.174872,51.1741275,RWE - Długołęka. Wrocławska,RWE,2,false,Długołęka,Wrocławska,33B
16.9599093,51.0479943,GreenWay,GreenWay,3,,,,
16.9543388,51.0482449,IKEA,IKEA,2,,,,
18.583529,54.392912,Nissan Zdunek KMJ - Gdańsk. Aleja Grunwaldzka,Nissan Zdunek KMJ,1,false,Gdańsk,Aleja Grunwaldzka,295
14.5003589,53.3912669,PKP Energetyka,PKP Energetyka,1,,,,
14.5448338,53.4267507, - Szczecin. aleja Wojska Polskiego,,2,false,Szczecin,aleja Wojska Polskiego,8
14.559644,53.4317815,Hotel - Szczecin. plantowa,Hotel,1,,Szczecin,plantowa,
14.5711405,53.4566386,Leroy Merlin - Szczecin. Maksymiliana Golisza,Leroy Merlin,1,,Szczecin,Maksymiliana Golisza,10H
14.6751176,53.3775751,Garo,Garo,2,,,,
19.4059043,54.1859049, - Elbląg. Pułkownika Stanisława Dąbka,,2,,Elbląg,Pułkownika Stanisława Dąbka,250
20.5228496,53.7656409,Olsztyński Park Naukowo Techniczny - Olsztyn. Władysława Trylińskiego,Olsztyński Park Naukowo Techniczny,2,,Olsztyn,Władysława Trylińskiego,16
20.9291692,52.37846,Centrum Badawcze PAN - Jabłonna. Akademijna,Centrum Badawcze PAN,3,true,Jabłonna,Akademijna,27
21.0281794,52.2414839,RWE - Warszawa. Wybrzeże Kościuszkowskie,RWE,2,,Warszawa,Wybrzeże Kościuszkowskie,20
21.0105235,52.2442352,RWE,RWE,2,false,,,
21.0074131,52.2305253,Innogy - Warszawa. Plac Defilad,Innogy,2,false,Warszawa,Plac Defilad,
21.0072196,52.2246621,PKP Energetyka - Warszawa. Hoża,PKP Energetyka,2,,Warszawa,Hoża,63
21.0135456,52.2231318,RWE - Warszawa. Piękna,RWE,2,,Warszawa,Piękna,46
21.0093143,52.2129156,RWE - Warszawa. Stanisława Rychlińskiego,RWE,2,,Warszawa,Stanisława Rychlińskiego,2
21.0028813,52.1853087,GreenWay - Warszawa. Wołoska,GreenWay,1,,Warszawa,Wołoska,22a
20.7672512,52.2592234,EVrent.pl - Wojcieszyn. Trakt Królewski,EVrent.pl,1,,Wojcieszyn,Trakt Królewski,82
19.7394882,52.5371375,Leroy Merlin - Płock. Trasa Jerzego Popiełuszki,Leroy Merlin,2,,Płock,Trasa Jerzego Popiełuszki,2
16.851935,52.4864191,Leroy Merlin - Suchy Las. Złotnicka,Leroy Merlin,2,,Suchy Las,Złotnicka,1
20.9872027,52.3035429,LIDL - Warszawa. Zabłocka,LIDL,3,,Warszawa,Zabłocka,4
21.0181128,52.1085255,LIDL - Warszawa. Katarynki,LIDL,2,,Warszawa,Katarynki,6
19.9429402,50.0576557,ABB - Kraków. Starowiślna,ABB,2,,Kraków,Starowiślna,13A
19.9178761,50.0659801,RWE - Kraków. Aleja Adama Mickiewicza,RWE,4,,Kraków,Aleja Adama Mickiewicza,30
19.9924581,50.0253726, - Kraków. Bieżanowska,,2,,Kraków,Bieżanowska,71
19.9544187,50.054274,Galeria Kazimierz - Kraków. Podgórska,Galeria Kazimierz,2,,Kraków,Podgórska,43
18.484067,54.3791411,Parking Lotnisko Gdańsk - Gdańsk. Juliusza Słowackiego,Parking Lotnisko Gdańsk,2,,Gdańsk,Juliusza Słowackiego,156
18.5243806,54.3506446,Energa - Gdańsk. Szczęśliwa,Energa,2,,Gdańsk,Szczęśliwa,1
18.6408647,54.3515349,Energa - Gdańsk. Nowe Ogrody,Energa,2,,Gdańsk,Nowe Ogrody,6
18.6008989,54.3783666,Zarząd Dróg i Zieleni w Gdańsku - Gdańsk. Partyzantów,Zarząd Dróg i Zieleni w Gdańsku,2,,Gdańsk,Partyzantów,36
16.3656899,52.2158653,Total - Grodzisk Wielkopolski. Zielonogórska,Total,2,,Grodzisk Wielkopolski,Zielonogórska,3
19.1182358,50.3611449,Lidl,Lidl,2,,,,
18.564518,54.4397378,Energa - Sopot. Tadeusza Kościuszki,Energa,2,,Sopot,Tadeusza Kościuszki,25
22.0177316,50.1162537,Aeropolis Rzeszów,Aeropolis Rzeszów,1,,,,954
20.9733815,50.0042651,Tarnów Railway Parking - Tarnów. Do Huty,Tarnów Railway Parking,2,,Tarnów,Do Huty,1
17.0321428,52.4089571,Galactico - Poznań. Warszawska,Galactico,2,,Poznań,Warszawska,349
17.002717,52.3515262,EV+ - Poznań. Ostrowska,EV+,2,,Poznań,Ostrowska,474
16.9721804,52.3997232,EV+ - Poznań. Arcybiskupa Antoniego Baraniaka,EV+,2,,Poznań,Arcybiskupa Antoniego Baraniaka,77
15.2896475,52.765923,Ładowarka do pojazdów EV,Ładowarka do pojazdów EV,,,,,
16.0689988,51.8793897, - Sława. Odrodzonego Wojska Polskiego,,2,false,Sława,Odrodzonego Wojska Polskiego,2
20.9959461,52.2284095,Zarząd Dróg Miejskich,Zarząd Dróg Miejskich,2,false,,,
15.5095112,51.9398831,,,,,,,
18.0192276,53.1254755,Rawicom - Bydgoszcz. Jagiellońska,Rawicom,1,,Bydgoszcz,Jagiellońska,39-47
20.8600137,52.1701352,,,2,,,,
20.9297572,50.010538,,,,,,,
19.5918444,51.7947055,GreenWay,GreenWay,2,true,,,
16.8402099,52.3536301,GreenWay,GreenWay,2,true,,,
16.8370372,52.35255,Rawicom.pl,Rawicom.pl,1,,,,
16.76418,52.4405233,GreenWay,GreenWay,3,true,,,
16.9829112,52.380448,GreenWay,GreenWay,4,true,,,
16.8968392,52.3805528,GreenWay,GreenWay,3,true,,,
19.1353191,50.3164906,,,,,,,
17.5611881,52.3237203,GreenWay,GreenWay,3,true,,,
17.2724401,52.2250421,EVPlus,EVPlus,2,,,,
16.8878649,52.3521865,GreenWay,GreenWay,2,true,,,
18.7747,52.8751677,Tesla. Inc.,Tesla. Inc.,4,true,,,
15.6315845,51.3379528,GreenWay,GreenWay,2,true,,,
16.1532201,51.206963,GreenWay,GreenWay,2,true,,,
16.0398906,51.5528208,GreenWay,GreenWay,2,true,,,
14.8605598,51.6352283,GreenWay,GreenWay,2,true,,,
14.5078295,53.3847488,GreenWay,GreenWay,3,true,,,
14.6607,53.3847,GreenWay,GreenWay,2,true,,,
15.2604,52.7605,GreenWay,GreenWay,3,true,,,
15.3182,52.2959,GreenWay,GreenWay,2,true,,,
16.9613,51.0466,GreenWay,GreenWay,2,true,,,
16.9715839,51.0515494,GreenWay,GreenWay,2,true,,,
16.9906054,51.1189832,GreenWay,GreenWay,2,true,,,
17.3477,50.7838,GreenWay,GreenWay,2,true,,,
17.9182,50.5233,GreenWay,GreenWay,2,true,,,
19.1540363,50.7305873,GreenWay,GreenWay,2,true,,,
18.7253604,51.5969738,GreenWay,GreenWay,2,true,,,
19.660241,51.4048402,GreenWay,GreenWay,3,true,,,
19.4873,51.6473,GreenWay,GreenWay,2,true,,,
19.4141827,51.7024073,GreenWay,GreenWay,3,true,,,
18.9694,52.6254,GreenWay,GreenWay,2,true,,,
18.6395,53.0252,GreenWay,GreenWay,2,true,,,
19.9834,53.6894,GreenWay,GreenWay,2,true,,,
18.4834912,54.4323,GreenWay,GreenWay,2,true,,,
18.5193598,54.3727271,GreenWay,GreenWay,2,true,,,
18.6429,54.349,GreenWay,GreenWay,2,true,,,
18.5937126,54.4095011,GreenWay,GreenWay,2,true,,,
17.3870761,52.5544468,,,,,,,
20.8332929,52.1071321,GreenWay,GreenWay,2,true,,,
20.9290619,52.2412356,GreenWay,GreenWay,2,true,,,
21.1053,52.2307,GreenWay,GreenWay,5,true,,,
20.9667691,52.3174768,GreenWay,GreenWay,2,true,,,
20.9010628,52.324253,GreenWay,GreenWay,2,true,,,
21.7860467,52.7536163,GreenWay,GreenWay,3,true,,,
22.0767,53.1698,GreenWay,GreenWay,2,true,,,
22.4753205,53.6328662,GreenWay,GreenWay,2,true,,,
22.9441689,54.1254286,GreenWay,GreenWay,2,true,,,
16.837186,52.3525233,Nissan,Nissan,,,,,
18.4304165,49.9437184,GreenWay,GreenWay,4,true,,,
18.6567538,50.2574259,GreenWay,GreenWay,4,true,,,
18.6468,50.3067,GreenWay,GreenWay,4,true,,,
18.8505,50.3472,GreenWay,GreenWay,2,true,,,
19.0072784,50.2708856,GreenWay,GreenWay,2,true,,,
19.0505,49.803,GreenWay,GreenWay,3,true,,,
19.8967,50.0916,GreenWay,GreenWay,2,true,,,
19.9989794,50.0742585,GreenWay,GreenWay,3,true,,,
21.0031,50.0303,GreenWay,GreenWay,2,true,,,
22.0146,50.0279,GreenWay,GreenWay,3,true,,,
23.0378382,49.9710257,GreenWay,GreenWay,3,true,,,
22.6166,51.2315,GreenWay,GreenWay,3,true,,,
17.2793031,52.2296077,EVPlus,EVPlus,2,,,,
16.0052157,52.5773676,,,,,,,
18.4841187,54.3797317,Intel Technology Poland,Intel Technology Poland,4,,,,
20.9400387,52.4094285,Elocity,Elocity,2,false,,,
16.6420841,50.7242824,,,,,,,
19.9486249,50.0053732,GreenWay - Kraków. Stanisława Stojałowskiego,GreenWay,2,true,Kraków,Stanisława Stojałowskiego,12
19.3156704,50.1713168,PKM Jaworzno,PKM Jaworzno,1,,,,
16.7581836,52.3874645,,,,,,,
16.943513,52.5351545,,,,,,,
18.1313697,53.1441798,,,,,,,
19.2297421,50.4659507,Orlen,Orlen,,,,,
23.1137481,53.1378785,GreenWay,GreenWay,2,,,,
20.7109177,49.5900658, - Nowy Sącz. Graniczna,,,,Nowy Sącz,Graniczna,98
16.1977015,51.4088306,Tauron,Tauron,2,,,,
15.0887055,52.3188271,GreenWay,GreenWay,3,true,,,
15.5407585,52.2367684,GreenWay,GreenWay,2,,,,
16.9468675,52.443267,,,,,,,
18.7929167,54.0871423,Energa,Energa,2,true,,,
18.6020364,53.5520882,,,1,false,,,
19.9206526,50.1179299,GO+EAuto,GO+EAuto,1,,,,
15.0351682,51.1577035,GreenWay,GreenWay,2,,,,
15.2320261,52.6975016,,,3,,,,
23.2617432,50.7156443,,,1,,,,
22.570042,51.2825774,GreenWay,GreenWay,3,true,,,
19.0163278,50.2567494,PKP S.A.,PKP S.A.,2,,,,
19.4861444,52.186134,Lotos,Lotos,2,,,,
19.4880936,52.1822263,Lotos,Lotos,2,,,,
18.6294952,53.8885143,GreenWay,GreenWay,2,true,,,
18.6326193,53.8878195,GreenWay,GreenWay,2,true,,,
20.6869485,52.1558946,Lotos,Lotos,3,,,,
20.6854237,52.1545833,Lotos,Lotos,3,,,,
18.7096188,53.3463047,Lotos,Lotos,2,,,,
18.7077652,53.3418166,Lotos,Lotos,2,,,,
18.4867977,54.4341749,Lotos,Lotos,2,,,,
18.4891569,54.432217,Lotos,Lotos,2,,,,
18.53746,54.494695,GreenWay,GreenWay,2,false,,,
18.5397143,54.496768,Lotos,Lotos,2,,,,
18.4842663,54.5429135,Makro,Makro,2,,,,
15.7578822,54.217305,Zdrojowa Invest & Hotels,Zdrojowa Invest & Hotels,2,false,,,
15.6046526,54.1888851,Zdrojowa Invest & Hotels,Zdrojowa Invest & Hotels,3,false,,,
15.5988837,54.1868054,Zdrojowa Invest & Hotels,Zdrojowa Invest & Hotels,3,false,,,
15.568708,54.183472,Zdrojowa Invest & Hotels,Zdrojowa Invest & Hotels,3,false,,,
15.3471523,52.0451187,,,,,,,
15.4384265,54.1625817,Tesla,Tesla,2,,,,
19.1820363,50.3279951,,,2,,,,
18.7141197,50.0496508,,,,,,,
18.0037378,53.1262939,ładowanie telefonu. USB charger,ładowanie telefonu. USB charger,,,,,
18.5824247,49.9473683,,,2,false,,,
18.5992664,53.0403441,,,,,,,
16.1080963,52.33882,Greenway,Greenway,,true,,,
21.9939686,50.0382075,PGE Nowa Energia - Rzeszów. Kazimierza Pułaskiego,PGE Nowa Energia,2,,Rzeszów,Kazimierza Pułaskiego,13A
22.5687488,51.2378253,PGE Nowa Energia,PGE Nowa Energia,2,,,,
22.5949092,51.2320617,PGE Nowa Energia,PGE Nowa Energia,2,,,,
20.6905042,49.6253362,,,2,,,,
15.7484517,54.2012381,EV+ - Ustronie Morskie. Kołobrzeska,EV+,2,true,Ustronie Morskie,Kołobrzeska,1a
20.647733,49.5597325,,,1,false,,,
20.6725164,49.5865479,,,2,,,,
17.8073616,51.6509402,Miasto Ostrów Wielkopolski,Miasto Ostrów Wielkopolski,1,false,,,
17.8074308,51.650928,Miasto Ostrów Wielkopolski,Miasto Ostrów Wielkopolski,1,false,,,
20.8965263,52.2297382,innogy,innogy,2,false,,,
21.0022697,52.1601092,,,2,,,,
16.76639,50.2306554,Glacensi Singletrack,Glacensi Singletrack,2,,,,
17.9231226,50.6673341,ECO,ECO,,true,,,
18.1614582,50.4632559,Orlen,Orlen,3,,,,
21.7775652,49.6766859,,,2,,,,
18.977344,50.2263494,PKP,PKP,2,,,,
21.1741124,52.2068466,Instutut Elektrotechniki,Instutut Elektrotechniki,3,false,,,
23.0365947,49.9715684,,,2,true,,,
22.1520974,50.5138094,,,2,true,,,
22.2505009,50.928187,,,2,true,,,
21.9130106,51.6396963,,,3,true,,,
22.550447,51.2448094,,,2,true,,,
22.3869154,52.1082465,,,3,true,,,
21.6440395,51.8676842,GreenWay,GreenWay,2,true,,,
21.0215811,52.096686,,,2,true,,,
20.9503993,52.2119589,,,3,true,,,
21.0606086,52.1881184,,,3,true,,,
21.0586479,52.3028714,,,2,true,,,
21.0004252,52.2945534,,,2,true,,,
20.9318358,52.2963858,,,4,true,,,
20.4523104,52.5894466,,,2,true,,,
21.4398216,52.601528,,,2,true,,,
19.3708688,54.1504928,,,2,true,,,
23.1439354,53.1378587,,,,,,,
15.5001875,51.9167966,,,,,,,
15.5001366,51.9168046,,,,,,,
15.5000483,51.9168113,,,,,,,
15.5000983,51.9168036,,,,,,,
18.5438978,50.0950886,GO+EAuto,GO+EAuto,2,true,,,
22.231142,50.0682236,GO+EAuto,GO+EAuto,2,,,,
20.9741783,51.6202203,,,,,,,
16.8679407,51.3610758,,,,,,,
20.8632159,52.0460933,,,,,,,
16.5148679,50.4094064,PGE Nowa Energia,PGE Nowa Energia,2,,,,
16.5139916,50.4079147,,,2,,,,
16.5032438,50.4113927,,,4,,,,
16.779797,50.3483325,,,2,,,,
19.9510668,50.0948923,GO+EAuto,GO+EAuto,2,true,,,
19.9275932,50.1192497,GO+EAuto,GO+EAuto,2,,,,
14.9527557,52.945287,GreenWay,GreenWay,2,true,,,
20.4259026,49.7055789,Biedronka,Biedronka,1,,,,
21.1131282,52.8694239,Ecotap,Ecotap,,,,,
17.0381045,51.1098852,GreenWay,GreenWay,1,,,,
16.5302985,51.8314445,,,,,,,
20.6822434,49.4912279,,,3,false,,,
18.86677,50.2749374,GreenWay,GreenWay,2,,,,
15.2426978,54.1258737,,,,false,,,
17.0082936,52.4098329,Orlen,Orlen,2,true,,,
19.1539022,50.8350939,Orlen,Orlen,2,false,,,
19.0450868,50.8477228,Orlen,Orlen,2,false,,,
19.0876534,50.8027877,Orlen,Orlen,2,false,,,
19.1559287,50.7187737,Orlen,Orlen,3,false,,,
19.2471826,50.3170665,Orlen,Orlen,3,false,,,
19.7582981,50.078967,Orlen,Orlen,2,false,,,
19.7741437,50.0812026,Orlen,Orlen,2,false,,,
21.1254793,51.3795308,Tesla. Inc.,Tesla. Inc.,4,true,,,
15.5281177,54.1703166,Energa,Energa,2,,,,
19.0083053,50.261308,Tauron,Tauron,2,,,,
18.9865513,50.2629496,Revnet,Revnet,2,,,,
19.9104935,51.9855335,,,,,,,
16.3283762,50.8084805,TMMP,TMMP,1,false,,,
19.4243012,54.3751465,Niskie Progi,Niskie Progi,1,,,,
16.8847874,50.3426922,PGE,PGE,2,,,,
18.7903217,50.311711,,,2,,,,
18.5309189,54.5210915,PKP S.A. - Gdynia. Plac Konstytucji,PKP S.A.,2,,Gdynia,Plac Konstytucji,2
18.6767632,50.3004385,PKP Polskie Linie Kolejowe S.A.,PKP Polskie Linie Kolejowe S.A.,2,true,,,
14.7019615,53.9986533,,,,,,,
14.7018606,53.9985189,,,,,,,
14.7020051,53.9985347,,,,,,,
14.7018259,53.9986402,,,,,,,
14.5166637,53.4462401,EVplus Sp. z o.o.,EVplus Sp. z o.o.,2,,,,
14.4336861,53.9134183,,,2,,,,
14.4964849,53.450193,EVplus Sp. z o.o.,EVplus Sp. z o.o.,2,,,,
16.666947,50.148553,PGE Nowa Energia,PGE Nowa Energia,2,,,,
20.047957,50.0815408,GO+EAuto,GO+EAuto,2,,,,
21.9427386,50.0614919,Orlen,Orlen,2,true,,,
15.7465167,50.8948279,Tauron,Tauron,2,,,,
16.2530515,50.8046772,PGE Nowa Energia,PGE Nowa Energia,2,,,,
22.219939,52.4254399,,,,,,,
19.4563111,51.7329073,PGE Nowa Energia,PGE Nowa Energia,2,,,,
15.1562329,52.7450554,Orlen,Orlen,2,,,,
20.007324,50.0636098,GO+EAuto,GO+EAuto,2,true,,,
20.0000738,50.0647078,GO+EAuto,GO+EAuto,,true,,,
19.9990545,50.064524,GreenWay,GreenWay,,true,,,
15.765695,50.7706103,Power EV,Power EV,2,,,,
18.1608432,50.4615264,Orlen,Orlen,2,,,,
17.4137588,50.7639727,Tauron,Tauron,2,,,,
17.3517781,50.2748102,,,,,,,
17.1722574,50.4648304,,,,,,,
21.0095406,52.2563586,,,1,true,,,
18.8119554,50.30128,Fortum,Fortum,2,,,,
18.8093874,50.2945458,Fortum,Fortum,2,,,,
23.1793542,53.1236679,GreenWay,GreenWay,2,true,,,
23.1254796,53.14042,GreenWay,GreenWay,2,false,,,
16.3047775,50.829786,PGE Nowa Energia,PGE Nowa Energia,2,,,,
16.8832056,50.2736248,,,,false,,,
19.5107178,51.7939744,GreenWay,GreenWay,3,true,,,
19.9373119,50.0585435,Urząd Miasta Krakowa,Urząd Miasta Krakowa,2,,,,
15.20003,52.7365541,,,2,,,,
19.9595177,50.0258962,,,,true,,,
19.9330705,50.0461877,MPK Kraków,MPK Kraków,1,,,,
20.0159046,50.012816,MPK Kraków,MPK Kraków,1,,,,
19.9304556,50.0963324,MPK Kraków,MPK Kraków,1,,,,
19.4019101,53.2544992,Energa,Energa,2,,,,
19.6662827,49.9592679,Własiciel prywatny - info: www.plugshare.com,Własiciel prywatny - info: www.plugshare.com,1,false,,,
21.0286296,52.0740611,Piaseczno,Piaseczno,2,true,,,
20.7190672,50.4531003,,,,,,,
19.9284678,50.0719092,GO+EAuto,GO+EAuto,2,,,,
17.4343789,50.7566819,GreenWay,GreenWay,2,,,,
22.0061801,50.0403467,GO+EAuto,GO+EAuto,2,true,,,
18.2238745,54.6071213,,,2,,,,
20.6399656,50.8822817,Greenway,Greenway,2,,,,
17.2932227,52.2371224,EVPlus,EVPlus,,,,,
18.5056316,54.5639975,Energa,Energa,2,,,,
16.9932611,52.4486011,,,,,,,
21.093059,52.2347698,,,,,,,
16.2151996,51.072571,Orlen,Orlen,3,,,,
21.0315554,52.250577,PGE Nowa Energia,PGE Nowa Energia,2,,,,
21.9793015,50.0198462,GO+EAuto,GO+EAuto,2,,,,
15.6163923,51.9258588,,,,,,,
15.0284145,51.1617652,EVBOX,EVBOX,,,,,
15.028327,51.1617721,EVBOX,EVBOX,,,,,
21.1773945,51.4103068,GreenWay,GreenWay,2,,,,
18.6721922,50.221871,GreenWay,GreenWay,3,true,,,
17.8070632,51.6513838,,,1,,,,
17.8071662,51.6514108,,,1,,,,
16.9665875,51.1304185,Orlen,Orlen,2,,,,
15.2374902,51.2104341,Tauron,Tauron,2,,,,
21.050461,52.2520361,,,1,,,,
18.5685268,53.01821,Energa,Energa,2,,,,
18.7094636,53.0333326,GreenWay,GreenWay,,,,,
22.0037259,50.0370258,PGE,PGE,,,,,
22.012301,50.0383544,PGE Nowa Energia,PGE Nowa Energia,2,,,,
21.9761726,50.0366024,,,,,,,
21.1127455,52.3016367,PGE Nowa Energia,PGE Nowa Energia,2,,,,
21.1214258,52.2906311,GO+EAuto,GO+EAuto,2,,,,
18.6013132,53.0091874,Energa,Energa,2,,,,
18.5713645,53.0161885,Energa,Energa,2,,,,
18.5836021,53.013924,Energa,Energa,2,,,,
18.5910903,53.0184588,Energa,Energa,2,,,,
19.0052099,50.2949943,Tauron,Tauron,4,true,,,
18.4092281,54.7938392,Energa,Energa,2,true,,,
17.0445225,51.1308787,,,,,,,
15.6741646,51.0170361,energy,energy,,false,,,
18.5910457,53.018494,Energa,Energa,2,,,,
18.6343779,53.0244902,Energa,Energa,2,,,,
18.6267746,53.0271575,Energa,Energa,2,,,,
18.6130932,53.0008029,Energa,Energa,2,,,,
18.5980715,53.0153885,Energa,Energa,2,,,,
18.6120674,53.0224622,Energa,Energa,2,,,,
18.6152182,53.0112119,Energa,Energa,2,,,,
18.6117981,53.0209411,Energa,Energa,2,,,,
18.6140596,53.0137681,Energa,Energa,2,,,,
18.61414,53.0137437,Energa,Energa,2,,,,
18.6186623,53.0128392,Energa,Energa,2,,,,
18.6186891,53.0127745,Energa,Energa,2,,,,
18.6138193,53.01728,Energa,Energa,2,,,,
18.6157131,53.0153027,Energa,Energa,2,,,,
18.6156353,53.015319,Energa,Energa,2,,,,
18.6018845,53.0119714,Energa,Energa,2,,,,
18.6710971,53.0312021,Energa,Energa,2,,,,
18.6394201,53.0372757,Energa,Energa,2,,,,
21.1295775,51.3627201,,,,,,,
18.5729422,50.0896618,Ravnet,Ravnet,2,true,,,
18.5513496,50.132308,Orlen,Orlen,2,,,,
21.1061344,52.2343127,Signet,Signet,,,,,
18.5131535,54.5266037,Energa,Energa,2,,,,
18.3492174,54.6082092,Energa,Energa,2,,,,
18.5331056,50.0890334,GreenWay,GreenWay,2,true,,,
18.5227601,50.1016761,GO+EAuto,GO+EAuto,2,true,,,
18.5538933,54.5076383,,,,,,,
18.9082274,49.6265817,Aries Hotel & Spa Wisła,Aries Hotel & Spa Wisła,2,,,,
19.9491015,49.2938486,Aries Hotel,Aries Hotel,2,,,,
15.7375293,50.7722969,,,,,,,
22.0034866,50.0352112,PGE Nowa Energia,PGE Nowa Energia,2,true,,,
16.5372377,50.276775,,,4,false,,,
18.1024608,54.2345192,Energa,Energa,,,,,
22.5307294,51.1945076,ZTM Lublin,ZTM Lublin,2,,,,
21.1845403,51.4112029,MZDiK Radom,MZDiK Radom,,,,,
22.0112977,50.0628151,Orlen,Orlen,2,,,,
22.5524639,51.2838145,ZTM Lublin,ZTM Lublin,1,,,,
22.5522818,51.2838177,ZTM Lublin,ZTM Lublin,1,,,,
22.5521062,51.2838254,ZTM Lublin,ZTM Lublin,1,,,,
22.5519275,51.2838283,ZTM Lublin,ZTM Lublin,1,,,,
18.599881,53.0181049,Energa,Energa,2,,,,
18.5437973,54.5174413,Energa,Energa,2,true,,,
18.5599175,54.4800945,Innogy,Innogy,2,,,,
18.4966921,54.5299669,Energa Oświetlenie,Energa Oświetlenie,,,,,
18.4962759,54.5300586,Energa Oświetlenie,Energa Oświetlenie,,,,,
14.5821011,53.4582614,Enea Operator,Enea Operator,2,,,,
19.9804916,50.0944191,,,,,,,
14.5439215,53.4380665,EV+,EV+,2,false,,,
14.5595613,53.4244178,EV+,EV+,2,,,,
22.8941914,54.0282611,EV+,EV+,1,true,,,
16.186741,54.1921297,,,22,,,,
16.2122499,51.0726427,Orlen,Orlen,3,,,,
19.4454109,54.3863688,,,,,,,
21.2256644,52.3426302,PGE Nowa Energia sp. z o.o.,PGE Nowa Energia sp. z o.o.,2,,,,
18.6424416,54.3498626,,,,,,,
17.548415,54.7638443,,,,,,,
19.0256832,50.2600748,GreenWay,GreenWay,2,true,,,
17.3186985,53.65111,Energa,Energa,2,true,,,
20.8837056,51.1158702,,,,,,,
16.3774788,52.7075661,,,,,,Plac Targowy,3
16.4577518,50.4937351,PGE Nowa Energia,PGE Nowa Energia,2,,,,
19.8126564,50.0335262,GreenWay,GreenWay,2,,,,
21.5459869,53.9383081,wtyczka.eu,wtyczka.eu,,true,,,
22.2724232,52.1624031,PGE,PGE,,,,,
19.3978423,54.1585114,Orlen,Orlen,2,false,,,
19.3979287,54.1576565,Orlen,Orlen,2,false,,,
21.4943638,54.0803305,Power EV,Power EV,2,true,,,
20.8951394,52.2314636,GreenWay,GreenWay,2,true,,,
15.8080537,50.8773946,3KF,3KF,2,false,,,
15.8084818,50.8770665,3KF,3KF,,true,,,
16.8756156,51.5542546,EV+,EV+,2,,,,
21.134212,51.3769885,,,,,,,
14.5331724,53.4092888,Techenergo,Techenergo,1,true,,,
14.5531173,53.4227133,Techenergo,Techenergo,2,true,,,
14.553945,53.4232215,Techenergo,Techenergo,2,true,,,
14.5489501,53.4380133,Techenergo,Techenergo,2,true,,,
21.1347097,51.3769149,,,,,,,
21.1346024,51.3769309,,,,,,,
21.1341267,51.377005,,,,,,,
14.5655593,53.424214,ENEA,ENEA,,,,,
18.9902446,50.2201262,Tesla. Inc.,Tesla. Inc.,4,true,,,
18.598315,50.3161259,,,2,,,,
18.6314584,54.2652959,,,2,true,,,
18.5106541,50.0602839,,,,,,,
18.6026098,54.3900323,Energa,Energa,2,,,,
20.9756521,52.4288603,,,,,,,
20.9296992,51.6991124,,,2,,,,
19.7608333,52.5338069,Orlen,Orlen,3,,,,
19.6849184,52.5453206,Energa,Energa,2,,,,
20.0336152,50.3593024,,,2,false,,,
20.0062791,50.0896243,,,,,,,
14.5004089,53.4037571,EV+,EV+,2,true,,,
22.0458073,50.0891851,Tesla. Inc.,Tesla. Inc.,4,true,,,
15.6596582,50.8162189,,,,,,,
20.9651144,52.2477086,,,1,false,,,
20.9651713,52.247876,,,1,false,,,
20.9652201,52.2477272,,,1,false,,,
20.9652648,52.2478772,,,1,false,,,
21.1343125,51.3769781,,,,,,,
19.0614526,50.2544093,Tauron,Tauron,,,,,
17.9049976,50.6562503,GreenWay,GreenWay,2,true,,,
17.9246136,50.6706008,Power EV,Power EV,1,false,,,
22.2725741,52.1696245,Warszawa. Aleja Wilanowska,Warszawa. Aleja Wilanowska,2,,,,
17.0246954,51.0985574,go+,go+,2,,,,
16.8743888,50.4429363,,,,false,,,
23.1193664,53.1339665,GreenWay Polska,GreenWay Polska,2,true,,,
18.9739481,50.109421,,,,,,,
20.8399044,52.1821097,,,4,,,,
14.5134021,53.4072856,GreenWay,GreenWay,8,true,,,
20.2840997,50.6230979,Orlen,Orlen,2,,,,
19.4376623,51.6343715,Ekoenergetyka,Ekoenergetyka,2,,,,
22.7235777,50.5411958,,,1,true,,,
19.0293283,50.2658097,,,,,,,
19.0292427,50.2658145,,,,,,,
19.0291562,50.2658189,,,,,,,
17.8598453,50.5687282,,,2,,,,
20.1691414,50.0172744,,,1,,,,
14.4987241,53.4443369,Techenergo,Techenergo,2,true,,,
14.5352307,53.4391996,Techenergo,Techenergo,2,true,,,
18.65768,50.2781308,Metropolia GZM,Metropolia GZM,1,false,,,
18.6575813,50.2881251,Metropolia GZM,Metropolia GZM,1,false,,,
18.5988319,53.0443459,Energa,Energa,2,,,,
18.5814444,53.0500388,Energa,Energa,2,,,,
18.5955969,53.0318361,Energa,Energa,2,,,,
18.6034593,53.033517,Energa,Energa,2,,,,
18.603532,53.0335181,Energa,Energa,2,,,,
18.6181644,53.0243183,Energa,Energa,2,,,,
18.6773568,52.9757722,Energa,Energa,2,,,,
18.6174177,52.9955918,Energa,Energa,2,,,,
18.6638978,53.0263909,Energa,Energa,2,,,,
18.6638917,53.0263414,Energa,Energa,2,,,,
18.6729922,53.0188298,Energa,Energa,2,,,,
18.6730409,53.0187908,Energa,Energa,2,,,,
18.6935294,53.0271526,Energa,Energa,2,,,,
18.7095391,53.0517812,Energa,Energa,2,,,,
18.667203,53.0280726,Energa,Energa,2,,,,
18.6571823,53.0246432,Energa,Energa,2,,,,
18.657139,53.0246787,Energa,Energa,2,,,,
18.6885422,53.028035,Energa,Energa,2,,,,
18.5628776,52.9763461,Energa,Energa,2,,,,
18.562961,52.9763481,Energa,Energa,2,,,,
18.6708375,53.0224149,Energa,Energa,2,,,,
18.6709076,53.0224333,Energa,Energa,2,,,,
18.6863109,53.0383368,Revnet,Revnet,,,,,
22.5047643,51.2755445,ZTM Lublin,ZTM Lublin,,,,,
22.5046122,51.2754741,ZTM Lublin,ZTM Lublin,,,,,
18.6338013,52.9923917,Orlen,Orlen,,,,,
19.4413942,54.1695684,,,,,,,
17.1279963,51.1547146,,,,,,,
22.5795556,51.2330891,PGE,PGE,,,,,
19.3843762,51.8869189,Tesla. Inc.,Tesla. Inc.,8,true,,,
21.0293321,52.2077324,Tesla. Inc.,Tesla. Inc.,2,true,,,
22.6391413,51.2144717,ZTM Lublin,ZTM Lublin,,,,,
22.6393202,51.2144952,ZTM Lublin,ZTM Lublin,,,,,
16.1896723,54.1938246,,,,,,,
19.116178,50.2814192,Tauron,Tauron,2,,,,
19.113353,50.2748873,Tauron,Tauron,2,,,,
19.3762613,49.7213269,Urząd Gminy Ślemień,Urząd Gminy Ślemień,2,,,,
20.8404234,52.1824376,,,2,,,,
14.5373955,53.4543819,,,,,,,
18.3929399,50.4249252,,,,,,,
16.4480555,50.4146487,PGE Nowa Energia,PGE Nowa Energia,2,,,,
17.3063154,50.9426793,FamiDental,FamiDental,2,,,,
21.1707972,51.7696745,,,,,,,
16.2017903,54.2079509,Energa Grupa Orlen,Energa Grupa Orlen,2,true,,,
19.0071017,50.2678509,Tauron,Tauron,2,,,,
19.0151672,50.2705395,Tauron,Tauron,4,,,,
19.0066167,50.262809,GreenWay,GreenWay,2,,,,
18.9812724,50.274938,Tauron,Tauron,2,,,,
18.9813528,50.2749465,Tauron,Tauron,2,,,,
19.0258504,50.2728621,GreenWay,GreenWay,2,,,,
19.0175107,50.2855754,Tauron,Tauron,2,,,,
18.9650294,50.2741691,GreenWay,GreenWay,2,,,,
18.8954498,50.2951868,Orlen,Orlen,2,,,,
18.9753571,50.2894019,Tauron,Tauron,2,,,,
18.8450671,50.2416003,Tauron,Tauron,2,,,,
18.9851978,50.2592423,Tauron,Tauron,2,,,,
18.8674984,50.3002904,Orlen,Orlen,3,,,,
18.9849277,50.2565504,PGE,PGE,2,,,,
18.9792502,50.2619577,Revnet,Revnet,2,,,,
18.9899647,50.2633131,Tauron,Tauron,2,,,,
19.0215706,50.2563162,Tauron,Tauron,2,,,,
19.0208046,50.2587505,Tauron,Tauron,2,,,,
19.0115607,50.2594282,Tauron,Tauron,2,,,,
19.0624625,50.259446,Tauron,Tauron,2,,,,
19.0485551,50.2524027,Orlen,Orlen,2,,,,
19.0619071,50.269219,GreenWay,GreenWay,3,,,,
19.043754,50.2606522,Greenway,Greenway,2,,,,
19.0800073,50.2479203,GreenWay,GreenWay,2,,,,
19.0340525,50.2614487,Tauron,Tauron,2,,,,
19.0949439,50.2551817,Tauron,Tauron,2,,,,
19.0948775,50.2551976,Tauron,Tauron,2,,,,
19.056194,50.2686869,Tauron,Tauron,2,,,,
19.044378,50.2625324,Orlen,Orlen,2,,,,
19.0821014,50.278296,Orlen,Orlen,3,,,,
18.9774716,50.2358792,Tauron,Tauron,2,,,,
18.9775366,50.2358638,Tauron,Tauron,2,,,,
19.058481,50.2706642,GreenWay,GreenWay,4,,,,
18.9863804,50.2315263,GreenWay,GreenWay,2,,,,
18.9726944,50.2304032,Orlen,Orlen,2,,,,
19.0150767,50.2461009,Tauron,Tauron,2,,,,
18.9975884,50.2321807,GreenWay,GreenWay,2,,,,
19.0695673,50.2238673,Tauron,Tauron,2,,,,
19.026421,50.2452122,GreenWay,GreenWay,2,,,,
19.0468063,50.2539762,Orlen,Orlen,2,,,,
18.9950334,50.2252576,Tauron,Tauron,2,,,,
19.0004689,50.2271905,Tauron,Tauron,2,,,,
19.0550117,50.2295215,Tauron,Tauron,2,,,,
18.9798229,50.2150259,Lellek Group,Lellek Group,1,,,,
18.9797955,50.2150422,Lellek Group,Lellek Group,1,,,,
19.036251,50.2474952,Tauron,Tauron,2,,,,
19.0363011,50.2474626,Tauron,Tauron,2,,,,
18.9045787,50.3354724,Tauron,Tauron,2,,,,
19.0258139,50.2525639,GreenWay,GreenWay,2,,,,
18.9454913,50.3187027,Orlen,Orlen,3,,,,
18.8907558,50.3794657,GreenWay,GreenWay,3,,,,
19.0165105,50.2633805,Tauron,Tauron,2,,,,
19.0062308,50.249097,Tauron,Tauron,2,,,,
17.2008251,52.8097468,EV+,EV+,2,,,,
23.0956759,53.1600548,GreenWay,GreenWay,2,,,,
19.0376183,49.8384624,EV+,EV+,2,,,,
16.865783,52.405458,EV+,EV+,2,,,,
15.836694,52.9551208,EV+,EV+,,,,,
18.696042,50.2756837,GreenWay,GreenWay,3,,,,
14.5699343,53.4371086,EV+,EV+,1,,,,
18.6461227,50.2343204,GreenWay,GreenWay,2,,,,
14.2752421,53.9024362,GreenWay,GreenWay,2,,,,
19.0820207,50.46628,GreenWay,GreenWay,1,,,,
18.9341164,50.2933023,GO+EAuto,GO+EAuto,2,,,,
19.8379984,50.1085187,GO+EAuto,GO+EAuto,2,,,,
18.7926242,50.2893287,Tauron,Tauron,2,,,,
18.6507774,49.7497232,GO+EAuto,GO+EAuto,2,,,,
18.8274805,49.6973081,Tauron,Tauron,2,,,,
18.7982372,50.2966477,Tauron,Tauron,2,,,,
19.1332193,50.8113891,Tauron,Tauron,2,,,,
19.1461081,50.2852817,Tauron,Tauron,2,,,,
19.1059145,50.3201906,GreenWay,GreenWay,2,,,,
16.7696066,53.1513566,GreenWay,GreenWay,2,,,,
19.1633034,50.3031728,GreenWay,GreenWay,3,,,,
19.8085722,50.0732871,GreenWay,GreenWay,2,,,,
16.9040441,51.019529,EV+,EV+,,,,,
16.8269823,52.4351296,EV+,EV+,1,,,,
16.9031812,52.4633957,EV+,EV+,2,,,,
17.4187776,50.8447844,EV+,EV+,2,,,,
17.4194375,50.846262,EV+,EV+,1,,,,
16.8661262,52.4075632,EV+,EV+,2,,,,
16.8667461,52.4075759,EV+,EV+,2,,,,
16.7649449,52.4133632,GreenWay,GreenWay,3,,,,
19.8477218,50.1100226,GreenWay,GreenWay,2,,,,
20.3988636,53.1181121,GreenWay,GreenWay,3,,,,
19.3795484,51.0838352,GreenWay,GreenWay,2,,,,
18.1139664,53.1365725,GreenWay,GreenWay,3,,,,
17.7775036,51.2971871,GreenWay,GreenWay,2,,,,
18.2333036,52.1922128,GreenWay,GreenWay,2,,,,
19.2169958,51.6149408,GreenWay,GreenWay,2,,,,
15.4783504,51.9543448,GreenWay,GreenWay,2,,,,
18.7272062,53.447584,GreenWay,GreenWay,2,,,,
19.5935753,51.8925335,GreenWay,GreenWay,2,,,,
19.9718039,49.2853459,GreenWay,GreenWay,2,,,,
15.695954,51.8077918,GreenWay,GreenWay,3,,,,
18.639512,53.7410394,GreenWay,GreenWay,3,,,,
16.9484108,51.1072867,GreenWay,GreenWay,3,,,,
18.0827677,51.7657162,GreenWay,GreenWay,2,,,,
16.795809,50.7379167,GreenWay,GreenWay,2,,,,
17.0288902,51.0951765,GreenWay,GreenWay,2,,,,
19.909227,49.9808004,GreenWay,GreenWay,2,,,,
19.1270939,50.8445379,GreenWay,GreenWay,3,,,,
18.7024424,50.0394387,GreenWay,GreenWay,3,,,,
18.5147093,54.4719836,GreenWay,GreenWay,2,,,,
18.3755391,54.5848143,GreenWay,GreenWay,2,,,,
16.7539443,51.0171664,GreenWay,GreenWay,2,,,,
18.5128503,54.4730683,GreenWay,GreenWay,2,,,,
18.7563248,52.8706991,GreenWay,GreenWay,3,,,,
17.7547824,51.3038491,GreenWay,GreenWay,1,,,,
18.5485726,54.3429716,GreenWay,GreenWay,3,,,,
18.4747834,53.4184797,GreenWay,GreenWay,2,,,,
17.5128483,53.742137,GreenWay,GreenWay,1,,,,
19.3842878,51.8873561,GreenWay,GreenWay,3,,,,
18.6906486,54.3675794,GreenWay,GreenWay,2,,,,
20.895326,52.1324373,GreenWay,GreenWay,2,,,,
20.8951489,52.1324566,GreenWay,GreenWay,2,,,,
20.8614213,52.2148539,GreenWay,GreenWay,2,,,,
18.5618818,54.3091137,GreenWay,GreenWay,2,,,,
17.3473334,53.6729301,GreenWay,GreenWay,2,,,,
19.7496318,52.5363377,GreenWay,GreenWay,2,,,,
18.6132645,54.3215222,,,2,,,,
19.7511289,52.5403294,eMobility,eMobility,2,,,,
18.690312,49.965831,GreenWay,GreenWay,2,,,,
21.9758141,50.0485619,GreenWay,GreenWay,2,,,,
19.0455144,50.1982725,Tauron,Tauron,2,,,,
19.5333777,51.7521472,GreenWay,GreenWay,3,,,,
18.9589722,50.227095,Tauron,Tauron,2,,,,
18.9892865,50.206411,Tauron,Tauron,2,,,,
16.1832102,54.1908411,eMobility,eMobility,2,,,,
19.0928169,50.2631066,Tauron,Tauron,2,,,,
18.9736086,50.2261787,Tauron,Tauron,2,,,,
18.9869443,50.2023522,Tauron,Tauron,2,,,,
18.9903996,50.2231782,Tauron,Tauron,2,,,,
18.9823135,50.1997497,Tauron,Tauron,2,,,,
18.6562107,50.2582509,Tauron,Tauron,4,,,,
18.8372867,50.4393164,Tauron,Tauron,2,,,,
18.9810302,50.196928,Tauron,Tauron,2,,,,
19.9461107,50.0771039,GreenWay,GreenWay,2,,,,
18.3517585,53.9325304,GreenWay,GreenWay,2,,,,
18.3915116,50.4234809,GreenWay,GreenWay,2,,,,
19.4790757,51.7358434,GreenWay,GreenWay,3,,,,
18.985221,49.8325947,GreenWay,GreenWay,3,,,,
16.7610975,51.0228034,GreenWay,GreenWay,2,,,,
16.7610883,51.0227622,GreenWay,GreenWay,2,,,,
18.6512918,54.3453362,GreenWay,GreenWay,2,,,,
18.6513545,54.3453138,GreenWay,GreenWay,2,,,,
19.4059433,51.3918567,GreenWay,GreenWay,2,,,,
19.9223553,50.0911907,GreenWay,GreenWay,2,,,,
16.9753808,52.3833493,GreenWay,GreenWay,4,,,,
17.5063974,51.9684314,GreenWay,GreenWay,2,,,,
22.0665797,50.0384959,GreenWay,GreenWay,2,,,,
18.9804963,50.1083816,GreenWay,GreenWay,2,,,,
16.1829649,54.210459,GreenWay,GreenWay,3,,,,
20.4934253,53.7317897,GreenWay,GreenWay,2,,,,
16.5775473,52.3785197,GreenWay,GreenWay,2,,,,
16.5776671,52.3785436,GreenWay,GreenWay,2,,,,
21.0843852,52.304231,GreenWay,GreenWay,2,,,,
21.0843144,52.3042192,GreenWay,GreenWay,2,,,,
17.0743921,52.4052674,GreenWay,GreenWay,2,,,,
19.4001708,54.16665,GreenWay,GreenWay,2,,,,
20.4264442,53.3498076,GreenWay,GreenWay,2,,,,
18.242648,52.7834208,GreenWay,GreenWay,3,,,,
18.2766498,50.4638466,GreenWay,GreenWay,2,,,,
18.2765785,50.4638591,GreenWay,GreenWay,2,,,,
18.2765006,50.4638746,GreenWay,GreenWay,2,,,,
18.2764311,50.4638862,GreenWay,GreenWay,2,,,,
21.989656,50.0495611,GreenWay,GreenWay,2,,,,
19.0060075,50.2516566,GreenWay,GreenWay,2,,,,
16.993725,52.3830677,GreenWay,GreenWay,2,,,,
20.5983386,49.9632556,GreenWay,GreenWay,2,,,,
18.0006975,54.130039,GreenWay,GreenWay,2,,,,
16.2888508,50.8221961,GreenWay,GreenWay,3,,,,
18.9639509,50.2254459,GreenWay,GreenWay,2,,,,
16.0238438,53.3305723,GreenWay,GreenWay,3,,,,
23.0680964,52.0339878,GreenWay,GreenWay,3,,,,
18.7094109,53.3481244,GreenWay,GreenWay,2,,,,
18.7093549,53.3481191,GreenWay,GreenWay,2,,,,
18.7092799,53.3481117,GreenWay,GreenWay,2,,,,
18.7092127,53.348107,GreenWay,GreenWay,2,,,,
23.251604,50.7403899,GreenWay,GreenWay,3,,,,
17.5679245,53.6948229,GreenWay,GreenWay,1,,,,
21.2403603,52.1331287,GreenWay,GreenWay,2,,,,
17.0317685,51.0927274,GreenWay,GreenWay,3,,,,
18.4156463,54.5539458,GreenWay,GreenWay,2,,,,
21.7311142,50.0635109,GreenWay,GreenWay,2,,,,
18.824991,52.0764934,GreenWay,GreenWay,2,,,,
18.7789927,54.100514,GreenWay,GreenWay,2,,,,
19.9510122,50.0948551,GO+EAuto,GO+EAuto,2,,,,
19.9508389,50.094859,GO+EAuto,GO+EAuto,2,,,,
19.9507904,50.0948926,GO+EAuto,GO+EAuto,2,,,,
19.0254906,49.7829662,PRE Edward Biel,PRE Edward Biel,2,,,,
19.7887797,50.0275954,PRE Edward Biel,PRE Edward Biel,2,,,,
19.5680671,50.2818341,PGE Nowa Energia,PGE Nowa Energia,2,,,,
15.731966,50.9063042,PGE Nowa Energia,PGE Nowa Energia,2,,,,
16.0992125,50.9193591,PGE Nowa Energia,PGE Nowa Energia,2,,,,
14.9150414,50.9458698,PGE Nowa Energia,PGE Nowa Energia,2,,,,
14.9150467,50.9457983,PGE Nowa Energia,PGE Nowa Energia,2,,,,
19.3358823,51.2686697,PGE Nowa Energia,PGE Nowa Energia,2,,,,
16.247272,50.4435413,PGE Nowa Energia,PGE Nowa Energia,2,,,,
16.4035063,50.5053124,PGE Nowa Energia,PGE Nowa Energia,2,,,,
22.0028739,50.0300321,PGE Nowa Energia,PGE Nowa Energia,2,,,,
15.0145009,51.1487685,PGE Nowa Energia,PGE Nowa Energia,2,,,,
17.8753876,53.5806928,PGE Nowa Energia,PGE Nowa Energia,2,,,,
19.3837209,51.3647705,PGE Nowa Energia,PGE Nowa Energia,2,,,,
22.5316019,51.2391599,PGE Nowa Energia,PGE Nowa Energia,2,,,,
22.6293053,49.5919647,PGE Nowa Energia,PGE Nowa Energia,2,,,,
22.6293639,49.5919285,PGE Nowa Energia,PGE Nowa Energia,2,,,,
21.0133208,52.1790682,Warszawa. Aleja Wilanowska,Warszawa. Aleja Wilanowska,2,,,,
16.4659236,50.8423612,Warszawa. Aleja Wilanowska,Warszawa. Aleja Wilanowska,2,,,,
16.036758,50.7830754,Warszawa. Aleja Wilanowska,Warszawa. Aleja Wilanowska,2,,,,
19.3682578,51.3661051,Warszawa. Aleja Wilanowska,Warszawa. Aleja Wilanowska,2,,,,
16.3409893,50.7257783,Warszawa. Aleja Wilanowska,Warszawa. Aleja Wilanowska,2,,,,
16.4205248,50.7502746,Warszawa. Aleja Wilanowska,Warszawa. Aleja Wilanowska,2,,,,
22.2923658,52.1368798,PGE Nowa Energia,PGE Nowa Energia,2,,,,
20.936375,52.0907641,PGE Nowa Energia,PGE Nowa Energia,2,,,,
21.8945202,52.8022804,PGE Nowa Energia,PGE Nowa Energia,2,,,,
22.2924866,52.1336297,PGE Nowa Energia,PGE Nowa Energia,2,,,,
20.9525281,49.4251444,PGE Nowa Energia,PGE Nowa Energia,2,,,,
22.2876877,52.1691445,PGE Nowa Energia,PGE Nowa Energia,2,,,,
22.2739755,52.1672055,PGE Nowa Energia,PGE Nowa Energia,2,,,,
19.95687,49.2975666,PGE Nowa Energia,PGE Nowa Energia,2,,,,
22.0036814,50.0364626,PGE Nowa Energia,PGE Nowa Energia,2,,,,
16.6509581,50.7286088,PGE Nowa Energia,PGE Nowa Energia,2,,,,
18.9790344,50.1030734,GO+EAuto,GO+EAuto,2,,,,
22.022124,50.0269912,,,2,,,,
18.9921852,50.2361843,GO+EAuto,GO+EAuto,2,,,,
21.7948688,53.6233028,GO+EAuto,GO+EAuto,2,,,,
18.9965153,50.258922,GO+EAuto,GO+EAuto,2,,,,
19.2214148,50.3274607,Tauron,Tauron,2,,,,
19.2678478,50.2027321,Tauron,Tauron,2,,,,
19.0568867,49.8065716,Tauron,Tauron,2,,,,
16.5096191,50.4156977,Tauron,Tauron,2,,,,
19.2340081,50.2255191,Tauron,Tauron,2,,,,
19.1120962,50.2779195,Tauron,Tauron,2,,,,
18.7070926,50.671527,Tauron,Tauron,2,,,,
19.1266417,50.2762378,Tauron,Tauron,2,,,,
21.000391,50.0169167,Tauron,Tauron,2,,,,
19.9878743,49.286339,Tauron,Tauron,1,,,,
17.49963,51.2411607,Tauron,Tauron,2,,,,
16.2165323,51.3899817,Tauron,Tauron,2,,,,
19.7995906,50.0715092,Tauron,Tauron,3,,,,
17.500675,51.2397486,Ekoenergetyka,Ekoenergetyka,2,,,,
16.1560984,51.4355564,Tauron,Tauron,2,,,,
16.089296,51.6647323,Tauron,Tauron,2,,,,
15.9956563,51.6787262,Tauron,Tauron,2,,,,
18.1910921,50.3416056,Tauron,Tauron,2,,,,
16.064941,51.5055217,Tauron,Tauron,2,,,,
16.2519205,50.7852604,Tauron,Tauron,2,,,,
16.1216928,51.1880601,Tauron,Tauron,2,,,,
18.2117965,50.9889789,Tauron,Tauron,2,,,,
20.0529302,49.985484,Tauron,Tauron,2,,,,
19.8224197,49.3521007,Tauron,Tauron,2,,,,
16.4969969,50.8404022,Tauron,Tauron,2,,,,
15.7349518,50.9061132,Tauron,Tauron,2,,,,
15.7348882,50.9061311,Tauron,Tauron,2,,,,
16.1909872,51.2073753,Tauron,Tauron,2,,,,
20.1126821,49.3799567,Tauron,Tauron,2,,,,
19.1351241,50.8173444,Tauron,Tauron,2,,,,
16.1816211,51.2084726,Tauron,Tauron,2,,,,
18.9673513,49.956965,Tauron,Tauron,2,,,,
18.7133316,50.0504546,Tauron,Tauron,2,,,,
19.1557187,50.2200349,Tauron,Tauron,2,,,,
19.9460064,50.0889461,Tauron,Tauron,2,,,,
18.7896498,49.8018319,Tauron,Tauron,2,,,,
21.4128796,50.0462405,Tauron,Tauron,2,,,,
21.1602825,49.6566848,Tauron,Tauron,2,,,,
18.9879793,50.1120035,Tauron,Tauron,2,,,,
16.637177,50.4522025,Tauron,Tauron,2,,,,
17.0212985,51.0957603,Tauron,Tauron,2,,,,
17.0214562,51.0958881,Tauron,Tauron,2,,,,
18.6863898,50.0418545,Tauron,Tauron,2,,,,
18.3921741,54.7195301,eMobility,eMobility,2,,,,
17.4059104,51.2143546,Tauron,Tauron,2,,,,
21.006144,50.0352485,GO+EAuto,GO+EAuto,2,,,,
21.8254663,53.6393487,GO+EAuto,GO+EAuto,2,,,,
19.9141905,50.047417,GO+EAuto,GO+EAuto,2,,,,
21.9814991,50.0329773,GO+EAuto,GO+EAuto,2,,,,
21.9798856,50.0308108,Unknown,Unknown,2,,,,
18.5919791,49.9498104,GO+EAuto,GO+EAuto,2,,,,
21.8053482,53.6307485,GO+EAuto,GO+EAuto,2,,,,
20.0480279,50.0815041,GO+EAuto,GO+EAuto,2,,,,
19.9313137,50.0141874,GO+EAuto,GO+EAuto,2,,,,
21.0421527,52.2261421,GO+EAuto,GO+EAuto,2,,,,
19.8968457,50.0704624,GO+EAuto,GO+EAuto,2,,,,
20.046372,49.9856022,GO+EAuto,GO+EAuto,2,,,,
22.0345874,50.0417995,GO+EAuto,GO+EAuto,2,,,,
19.8913052,50.0159499,GO+EAuto,GO+EAuto,2,,,,
18.5311847,54.5213628,,,,,,,
18.5313037,54.5213127,,,,,,,
22.0416791,50.0255084,Elocity,Elocity,1,,,,
17.0191736,52.0925273,Elocity,Elocity,1,,,,
20.0608313,49.4649779,Elocity,Elocity,2,,,,
19.8950859,50.0784175,Elocity,Elocity,2,,,,
19.4109238,54.1552522,eMobility,eMobility,2,,,,
19.4237976,54.1654464,eMobility,eMobility,2,,,,
19.4060733,54.1884453,eMobility,eMobility,2,,,,
19.4074386,54.1598763,eMobility,eMobility,2,,,,
19.4071952,54.1598994,eMobility,eMobility,2,,,,
19.4225562,54.1780704,eMobility,eMobility,2,,,,
19.4039337,54.1700099,eMobility,eMobility,2,,,,
18.6131464,54.4058339,Lotos,Lotos,1,,,,
20.4020477,49.7285918,Emiter ZEVS,Emiter ZEVS,2,,,,
21.0660774,52.2739302,Lotos,Lotos,2,,,,
20.950273,52.1914674,Lotos,Lotos,1,,,,
20.9922995,52.227745,Elocity,Elocity,2,,,,
20.99225,52.2277127,Elocity,Elocity,2,,,,
19.5579256,53.4051959,Elocity,Elocity,2,,,,
17.0511179,51.0835461,Power EV,Power EV,2,,,,
17.0237064,51.116374,Orlen,Orlen,2,,,,
17.0925474,52.3272885,Orlen,Orlen,3,,,,
17.046007,51.1268434,Orlen,Orlen,2,,,,
17.0247445,51.0842453,Orlen,Orlen,2,,,,
17.0935105,52.3294258,Orlen,Orlen,3,,,,
16.4758418,52.387887,Orlen,Orlen,2,,,,
16.4759888,52.3866117,Orlen,Orlen,2,,,,
14.6530138,52.3241551,Orlen,Orlen,2,true,,,
14.6529336,52.3250146,Orlen,Orlen,2,true,,,
19.006597,50.101587,Orlen,Orlen,3,,,,
19.9772912,50.0458762,Orlen,Orlen,3,,,,
19.650351,52.5864841,Orlen,Orlen,2,,,,
20.8617923,50.0171339,Orlen,Orlen,2,,,,
19.0069104,50.1056019,Orlen,Orlen,2,,,,
19.2961407,50.1474837,Orlen,Orlen,3,,,,
19.8934438,50.0712676,Orlen,Orlen,2,,,,
19.9855781,49.3213186,Orlen,Orlen,2,,,,
16.2506491,50.442332,Power EV,Power EV,2,,,,
20.0058083,49.4708869,Power EV,Power EV,2,,,,
16.2686992,50.7658881,Power EV,Power EV,1,,,,
19.3012691,50.1495076,Orlen,Orlen,3,,,,
18.6724609,50.2869332,Orlen,Orlen,2,,,,
19.4209049,51.7401885,Orlen,Orlen,2,,,,
18.1553023,53.1443505,Orlen,Orlen,2,,,,
16.9177993,52.4268681,Orlen,Orlen,2,,,,
14.6415072,52.3130152,Ionity,Ionity,3,true,,,
20.8517287,51.8687812,Orlen,Orlen,3,,,,
20.959496,52.259154,Orlen,Orlen,2,,,,
15.5700072,51.3078758,Orlen,Orlen,3,,,,
18.7432057,50.3721839,Orlen,Orlen,3,,,,
18.7414629,50.3705469,Orlen,Orlen,3,,,,
17.7931252,52.5606857,Orlen,Orlen,3,,,,
22.8256386,53.9977796,Orlen,Orlen,3,,,,
18.3790456,54.5763718,Orlen,Orlen,2,,,,
19.5546784,51.7580951,Orlen,Orlen,2,,,,
19.4195248,51.7904093,Orlen,Orlen,2,,,,
18.1985017,52.6764014,Orlen,Orlen,3,,,,
19.4834143,51.7823816,Orlen,Orlen,2,,,,
14.8320605,53.5686485,Orlen,Orlen,2,,,,
19.4424347,50.1608151,Orlen,Orlen,2,,,,
19.7327963,53.8824029,Orlen,Orlen,2,,,,
18.9636877,52.7004008,Orlen,Orlen,2,,,,
21.2827508,53.8601604,Orlen,Orlen,2,,,,
16.9927836,51.0982417,Orlen,Orlen,2,,,,
22.0931577,52.9081113,Orlen,Orlen,3,,,,
18.5158405,54.4744332,Orlen,Orlen,2,,,,
19.7357205,53.8898487,Orlen,Orlen,3,,,,
21.1835078,51.4103858,Orlen,Orlen,2,,,,
16.3084601,54.2310622,Orlen,Orlen,2,,,,
15.5334096,52.2602273,Orlen,Orlen,2,,,,
14.5037921,53.4067174,Orlen,Orlen,2,,,,
16.9677566,52.3874168,Orlen,Orlen,,,,,
18.5614948,54.3089911,Orlen,Orlen,2,,,,
18.5842913,54.4026364,Orlen,Orlen,2,,,,
17.9618198,53.1372525,Orlen,Orlen,2,,,,
18.6076641,54.3261991,Orlen,Orlen,2,,,,
14.5790669,53.4656164,Orlen,Orlen,2,,,,
18.1198236,52.1791637,Orlen,Orlen,3,,,,
14.4230229,53.3384274,Orlen,Orlen,2,,,,
14.4215795,53.3366856,Orlen,Orlen,3,,,,
18.4757109,53.419006,Orlen,Orlen,2,,,,
19.979374,50.0690216,Orlen,Orlen,2,,,,
19.9102321,50.0750938,Orlen,Orlen,2,,,,
19.5351457,51.752069,Orlen,Orlen,2,,,,
18.7245584,52.9007683,Orlen,Orlen,2,,,,
19.5094971,51.7959463,Orlen,Orlen,2,,,,
16.9429339,52.3836937,Orlen,Orlen,2,,,,
18.5887175,54.2771566,Orlen,Orlen,2,,,,
18.4256575,54.5503557,Orlen,Orlen,2,,,,
16.9681128,54.4510375,Orlen,Orlen,2,,,,
22.2493608,50.9293106,Orlen,Orlen,2,,,,
16.8129955,52.2434331,Power EV,Power EV,2,,,,
18.5055373,50.0612281,Power EV,Power EV,1,,,,
17.0794388,50.7756726,Power EV,Power EV,2,,,,
17.5882135,50.3242608,Power EV,Power EV,1,,,,
18.5977638,54.4229554,Energa,Energa,2,,,,
18.7505873,53.4843252,Energa,Energa,2,,,,
18.557436,54.4602705,Energa,Energa,2,,,,
18.68259,54.6994271,Energa,Energa,2,,,,
18.5935648,54.3553785,Energa,Energa,2,,,,
20.4900826,53.7788682,Energa,Energa,2,,,,
18.5049628,52.998998,Energa,Energa,2,,,,
18.6335477,54.3724002,Energa,Energa,2,,,,
20.4511829,53.7772396,Energa,Energa,,,,,
19.4455016,54.3864615,Energa,Energa,2,,,,
20.4472269,53.7729929,Energa,Energa,2,,,,
18.3878765,54.569583,Energa,Energa,2,,,,
18.5933706,54.3842585,Energa,Energa,2,,,,
17.9766919,54.1226072,Energa,Energa,2,,,,
17.0107507,54.4814232,Energa,Energa,2,,,,
18.8116409,54.0506779,Energa,Energa,2,,,,
16.1857856,54.2065055,Energa,Energa,2,,,,
18.5764381,54.4003243,Energa,Energa,2,,,,
17.0281518,54.4643993,Energa,Energa,2,,,,
18.5446787,54.4869836,Energa,Energa,2,,,,
18.6323048,54.3766923,Energa,Energa,2,,,,
